name,Sunday,Monday,Tuesday,Wednesday,Thursday,Friday,Saturday,telephone,Adresse,Adresse2,city,location
Suisse4,,,,,,,,043 497 22 88,10 Barengasse,,Zurich,47.3704578/8.537889
Royaume-Uni9,,,,,,,,020 7629 9018,19 South Molton Street Mayfair,,London,51.51370199999999/-0.1481665
Etats-Unis7,,,,,,,,(305) 792-1157,19555 Biscayne Blvd,,Miami,25.9572096/-80.14316319999999
France94,10:00-19:00,,10:00-19:00,10:00-19:00,10:00-19:00,10:00-19:00,10:00-19:00,04 76 94 27 76,10 rue Clot Bey,,Grenoble,45.1899114/5.7235469
France48,10:00-19:00,,10:00-19:00,10:00-19:00,10:00-19:00,10:00-19:00,10:00-19:00,01 44 59 39 06,3 rue des Rosiers,,Paris,48.85624259999999/2.3610262
Allemagne5,,,,,,,,040 87972297,Bleichenbrucke 1/7,,Hambourg,53.55116109999999/9.9888549
Japon9,,,,,,,,06-6485-7666,3-1-3 Umeda,,Kita-ku,34.7031143/135.494996
France30,10:00-19:00,,10:00-19:00,10:00-19:00,10:00-19:00,10:00-19:00,10:00-19:00,03 80 48 49 85,41 Rue de la Liberté,,Dijon,47.3116847/5.0297261
Etats-Unis1,,,,,,,,(310) 358-9616,8640 Sunset Boulevard,West Hollywood,Los Angeles,34.0918762/-118.3799549
Chine8,,,,,,,,010 6417 6110,19 Sanlitun North Road,Taiguli,Beijing,39.938917/116.454464
France12,09:30-20:00,,09:30-20:00,09:30-20:00,09:30-20:00,09:30-20:00,09:30-20:00,04 98 03 62 01,9 Boulevard de Strasbourg,Galeries Lafayette,Toulon,43.1249806/5.930409999999999
0025 - Montmartre,10:00-19:00,,10:00-19:00,10:00-19:00,10:00-19:00,10:00-19:00,10:00-19:00,01 40 13 00 54,11 rue de Montmartre,,Paris,48.8642276/2.3451991
France116,10:00-19:00,,10:00-19:00,10:00-19:00,10:00-19:00,10:00-19:00,10:00-19:00,04 91 19 26 91,Boulevard du Littoral,Printemps terrasses du port,Marseille,43.3078301/5.366160799999999
Espagne9,,,,,,,,963 51 49 10,C/Marques de dos aguas 7,,Valencia,39.4729761/-0.374219
Espagne8,,,,,,,,917 70 49 95,79 Raimudo Fernandez Villaverde,,Madrid,40.4473353/-3.6942972
Royaume-Uni6,,,,,,,,020 8332 3004,22 Hill Street Richmond,,London,51.45901749999999/-0.3058454
France84,10:00-19:00,,10:00-19:00,10:00-19:00,10:00-19:00,10:00-19:00,10:00-19:00,02 41 43 35 17,6 rue Alsace,,Angers,47.4705749/-0.5512642
France26,10:00-19:00,,10:00-19:00,10:00-19:00,10:00-19:00,10:00-19:00,10:00-19:00,05 34 33 24 06,4 Rue Lapeyrouse,Galeries Lafayette,Toulouse,43.6039822/1.4460322
Etats-Unis6,,,,,,,,(212) 396-3800,992 Madison Ave,,NY,40.7751597/-73.9631581
France87,10:00-19:00,10:00-19:00,10:00-19:00,10:00-19:00,10:00-19:00,10:00-19:00,10:00-19:00,02 31 88 81 64,104 Rue Eugène Colas,,Deauville,49.3595926/0.07145750000000001
France25,10:00-19:00,,10:00-19:00,10:00-19:00,10:00-19:00,10:00-19:00,10:00-19:00,09 54 63 81 05,4 Rue Lapeyrouse,Galeries Lafayette,Toulouse,43.6039822/1.4460322
France42,10:00-19:00,,10:00-19:00,10:00-19:00,10:00-19:00,10:00-19:00,10:00-19:00,01 48 87 46 53,36 rue de la Verrerie,,Paris,48.8577518/2.3539077
Japon7,,,,,,,,093-551-4533,3-1-1 Kyomachi,,Kokurakita-ku,33.8851036/130.8825295
France4,10:00-20:00,,10:00-20:00,10:00-20:00,10:00-20:00,10:00-20:00,10:00-20:00,01 34 88 66 00,2 Avenue de Europe,Printemps Vélizy 2,Vélizy,48.78104769999999/2.2201121
Suisse5,,,,,,,,022 310 64 44,1 rue du Perron,,Genève,46.2022376/6.1483191
France16,,10:30-19:00,10:00-19:00,10:00-19:00,10:00-19:00,10:00-19:00,10:00-19:00,04 42 38 65 08,7 Rue Marius Reynaud,,Aix en Provence,43.5281752/5.4502102
France34,10:00-19:00,,10:00-19:00,10:00-19:00,10:00-19:00,10:00-19:00,10:00-19:00,03 87 62 05 14,4 rue Winston Churchill,,Metz,49.11670669999999/6.1723297
France96,10:00-19:00,,10:00-19:00,10:00-19:00,10:00-19:00,10:00-19:00,10:00-19:00,03 83 32 60 18,2 Avenue Foch,Printemps Nancy,Nancy,48.689738/6.1768049
Etats-Unis4,,,,,,,,(212) 989-7300,831 Washington Street,,NY,40.7400307/-74.0078055
Royaume-Uni12,,,,,,,,020 7225 5935,Harrods Women - 87-135 Brompton Road,4ème étage,London,51.5073509/-0.1277583
France58,10:00-19:00,,10:00-19:00,10:00-19:00,10:00-19:00,10:00-19:00,10:00-19:00,01 43 22 03 34,22 rue Départ,CC Montparnasse,Paris,48.8429768/2.3228289
France21,09:30-20:00,,09:30-20:00,09:30-20:00,09:30-20:00,09:30-20:00,09:30-20:00,04 93 62 66 19,6 Avenue Jean Médecin,,Nice,43.69883919999999/7.2696786
Danemark1,,,,,,,,33 33 93 36,"1, Ostergade",,Copenhagen,55.680163/12.584534
Royaume-Uni5,,,,,,,,020 7433 3600,23-24 Hampstead High Street,,London,51.5557917/-0.1763294
France97,10:00-19:00,,10:00-19:00,10:00-19:00,10:00-19:00,10:00-19:00,10:00-19:00,03 83 48 35 68,2 Avenue Foch,Printemps Nancy,Nancy,48.689738/6.1768049
Russie2,,,,,,,,8 (495) 951-11-98,"48, Kutuzovsky prospekt",Vremena Goda Mall,Moscou,55.73169499999999/37.487466
Royaume-Uni7,,,,,,,,020 7313 9518,42 Ledbury Road Kensington,,London,51.5142641/-0.1988797
Royaume-Uni3,,,,,,,,020 7586 8633,94 St John Wood's High street,,London,51.5331868/-0.1699805
Russie1,,,,,,,,8 (495) 725-41-15,"3, Red Square",,Moscou,55.754679/37.621661
Etats-Unis12,,,,,,,,(914) 684-6282,175 Bloomingdale Road,,NY,40.5282926/-74.2166268
Etats-Unis9,,,,,,,,(310) 772-7108,10250 Santa Monica Blvd,,LA,34.0583989/-118.4190067
France114,10:00-19:30,10:00-19:30,10:00-19:30,10:00-19:30,10:00-21:00,10:00-19:30,10:00-19:30,01 43 79 84 65,21-25 Cours de Vincennes,,Paris,48.848432/2.4013502
France45,10:00-19:00,,10:00-19:00,10:00-19:00,10:00-19:00,10:00-19:00,10:00-19:00,03 21 82 63 71,33 Boulevard du Parc,,Coquelles,50.9281093/1.805905
Etats-Unis11,,,,,,,,(415) 856-5612,845 Market Street,,San Francisco,37.7841/-122.406145
France85,10:00-19:00,,10:00-19:00,10:00-19:00,10:00-19:00,10:00-19:00,10:00-19:00,04 73 35 15 82,25 Place de Jaude,Galeries Lafayette,Clermont Ferrand,45.7764924/3.0830249
France105,10:00-19:00,,10:00-19:00,10:00-19:00,10:00-19:00,10:00-19:00,10:00-19:00,04 67 27 00 09,1 Rue des Pertuisanes,,Montpellier,43.6077795/3.8854593
Suisse3,,,,,,,,027 480 38 84,Rue du Prado 9,,Crans,46.305257/7.4677058
Chine5,,,,,,,,021 5466 2102,999 Huaihai Middle Rd,,Shanghai,31.215878/121.458278
France66,10:00-19:00,,10:00-19:00,10:00-19:00,10:00-19:00,10:00-19:00,10:00-19:00,01 44 82 08 35,2 Place des Victoires,,Paris,48.8656674/2.3406458
France93,09:30-20:00,09:30-20:00,09:30-20:00,09:30-20:00,09:30-21:00,09:30-20:00,09:30-20:00,01 42 82 40 87,10 rue de Mogador,,Paris,48.87388869999999/2.3313184
France27,10:00-19:00,,10:00-19:00,10:00-19:00,10:00-19:00,10:00-19:00,10:00-19:00,01 47 42 32 81,42 rue du Faubourg St Honoré,,Paris,48.8692512/2.3206812
France108,10:00-19:00,,10:00-19:00,10:00-19:00,10:00-19:00,10:00-19:00,10:00-19:00,04 78 62 92 49,17 Rue du Docteur Bouchut,,Lyon,45.7613861/4.855767999999999
France18,10:00-19:00,,10:00-19:00,10:00-19:00,10:00-19:00,10:00-19:00,10:00-19:00,04 93 43 11 56,6 rue du Commandant André,,Cannes,43.5520713/7.022896
Suède1,,,,,,,,08-611 80 04,Birger Jarlsgatan 8,,Stockholm,59.33421589999999/18.0749681
France13,10:00-19:00,,14:00-19:00,10:00-19:00,10:00-19:00,10:00-19:00,10:00-19:00,02 99 78 50 65,8 rue Leperdit,,Rennes,48.1133989/-1.6809581
France123,10:00-19:00,,10:00-19:00,10:00-19:00,10:00-19:00,10:00-19:00,10:00-19:00,05 59 41 85 72,19 Place Georges Clemenceau,Galeries Lafayette Biarritz,Biarritz,43.48206400000001/-1.5599377
Italie2,,,,,,,,02 4819 7887,"3,Corso Vercelli",,Milano,45.4660358/9.1641534
Etats-Unis2,,,,,,,,(212) 965-8700,153 Mercer Street,,NY,40.72517149999999/-73.9984412
France31,10:00-19:00,,10:00-19:00,10:00-19:00,10:00-19:00,10:00-19:00,10:00-19:00,04 91 52 94 56,40 Rue Saint-Ferréol,,Marseille,43.2939439/5.3777799
France7,10:00-20:00,,10:00-21:00,10:00-21:00,10:00-21:00,10:00-21:00,10:00-21:00,01 39 55 54 39,2 Avenue Charles de Gaulle,,Le Chesnay,48.8296202/2.1156024
France44,10:00-19:00,,10:00-19:00,10:00-19:00,10:00-19:00,10:00-19:00,10:00-19:00,03 88 16 96 24,34 Rue du 22 Novembre,,Strasbourg,48.5823346/7.745378199999998
Belgique5,,,,,,,,02 514 05 24,73 rue Antoine Dansaert,,Bruxelles,50.8499646/4.3467734
Allemagne4,,,,,,,,089 21268819,Neuturmstrassee 10,,Munich,48.1381007/11.5812137
Espagne4,,,,,,,,915 78 46 62,90 calle Claudio Coello,,Madrid,40.4314583/-3.6855737
Espagne2,,,,,,,,932 09 22 45,606 avenida Diagonal,,Barcelona,41.3927627/2.1429839
Etats-Unis10,,,,,,,,(212) 729-4501,504 Broadway,,NY,40.7221377/-73.99919469999999
Japon6,,,,,,,,082-568-3366,9-1 Matsubaracho,,Minami-ku,34.3964409/132.4736907
France11,10:30-19:30,,10:30-19:30,10:30-19:30,10:30-19:30,10:30-19:30,10:30-19:30,01 42 92 00 61,9 rue du 29 Juillet,,Paris,48.8652983/2.3305624
Etats-Unis3,,,,,,,,(212) 414-8470,409 Bleecker St,West Village,NY,40.7362566/-74.0050729
Irlande1,,,,,,,,(01) 605 6666,88-95 Grafton Street Dublin 2,2ème étage,Dublin,53.3423914/-6.259914699999999
France69,10:00-19:00,,10:00-19:00,10:00-19:00,10:00-19:00,10:00-19:00,10:00-19:00,01 45 25 04 07,16 bis rue de Passy,,Paris,48.8584032/2.2826084
France51,,09:30-19:30,09:30-19:30,09:30-19:30,09:30-19:30,09:30-19:30,09:30-20:00,02 31 91 73 92,28 rue Saint Jean,1er étage,Caen,49.1824234/-0.3604104
Japon10,,,,,,,,06-6226-8311,1-8-3 Shinsaibashi,,Chuo-ku,
France61,10:00-19:00,,10:00-19:00,10:00-19:00,10:00-19:00,10:00-19:00,10:00-19:00,01 45 49 10 34,200 Boulevard Saint Germain,,Paris,48.85496269999999/2.3295993
France65,10:00-19:00,,10:00-19:00,10:00-19:00,10:00-19:00,10:00-19:00,10:00-19:00,02 40 20 43 05,2 Place Sainte Croix,,Nantes,47.2154275/-1.5546052
Suisse2,,,,,,,,022 310 67 43,5 rue de la Fontaine,,Genève,46.2017361/6.1499682
Chine7,,,,,,,,010 8561 9588,"9, Dongdaqiao Road",Park View Green,Beijing,39.920217/116.44784
France50,10:00-19:00,,10:00-19:00,10:00-19:00,10:00-19:00,10:00-19:00,10:00-19:00,01 45 00 73 77,3 Avenue Victor Hugo,,Paris,48.8727263/2.2930084
France36,10:00-19:00,,10:00-19:00,10:00-19:00,10:00-19:00,10:00-19:00,10:00-19:00,02 35 15 83 82,4 Rue du Gros Horloge,,Rouen,49.4412327/1.0934465
Chine6,,,,,,,,010 6612 1920,No 110 Xidan North Street,,Beijing,39.914671/116.374827
Royaume-Uni2,,,,,,,,020 7792 8788,182 Westbourne Grove,,London,51.51463560000001/-0.1995233
France91,10:00-19:00,,10:00-19:00,10:00-19:00,10:00-19:00,10:00-19:00,10:00-19:00,05 55 77 22 83,5 Boulevard Carnot,,Limoges,45.8318705/1.261782
Royaume-Uni10,,,,,,,,020 7351 2231,194 King's Rd,,London,51.4883365/-0.1669535
Pays-Bas1,,,,,,,,020 675 9722,78 Pieter Cornelisz Hooftstraat,,Amsterdam,52.3603661/4.880569899999999
France33,10:00-19:00,,10:00-19:00,10:00-19:00,10:00-19:00,10:00-19:00,10:00-19:00,02 35 63 42 07,4 rue du Gros Horloge,,Rouen,49.4412327/1.0934465
France72,10:00-19:00,,10:00-19:00,10:00-19:00,10:00-19:00,10:00-19:00,10:00-19:00,02 31 88 38 16,13 Rue Lucien Barrière,,Deauville,49.359535/0.070445
Etats-Unis13,,,,,,,,(617) 630-6653,225 Boylston Street,,Chestnut Hill,42.3211783/-71.1768641
France28,10:00-19:00,,10:00-19:00,10:00-19:00,10:00-19:00,10:00-19:00,10:00-19:00,01 44 54 00 60,42 rue des Francs Bourgeois,,Paris,48.8587038/2.358959
France74,10:00-19:00,,10:00-19:00,10:00-19:00,10:00-19:00,10:00-19:00,10:00-19:00,03 88 32 62 71,13 rue de la Mésange,,Strasbourg,48.5844447/7.747854500000001
France73,10:00-19:00,,10:00-19:00,10:00-19:00,10:00-19:00,10:00-19:00,10:00-19:00,02 31 87 41 02,13 rue Edmond Blanc,,Deauville,49.3584531/0.06987499999999999
Belgique4,,,,,,,,050 60 14 17,144 Kustlaan,,Kokke Heist,51.3552109/3.302469
France5,10:00-20:00,,10:00-20:00,10:00-20:00,10:00-20:00,10:00-20:00,10:00-20:00,01 39 46 33 69,2 Avenue de Europe,Printemps Vélizy 2,Velizy,48.78104769999999/2.2201121
Etats-Unis8,11:00-19:00,10:00-21:00,10:00-21:00,10:00-21:00,10:00-21:00,10:00-21:00,10:00-21:00,(516) 873-2927,630 Old Contry Road 15530,,Garden City,40.7399709/-73.61357579999999
Chine4,,,,,,,,021 5283 1598,1168 Nanjing Road West,,Shanghai,31.228571/121.455929
France99,10:00-19:00,,10:00-19:00,10:00-19:00,10:00-19:00,10:00-19:00,10:00-19:00,04 91 54 29 48,40 Rue Saint-Ferréol,,Marseille,43.2939439/5.3777799
France95,,10:30-19:30,10:30-19:30,10:30-19:30,10:30-19:30,10:30-19:30,10:30-19:30,01 43 29 18 29,1 Rue Vieux Colombier,,Paris,48.8512333/2.3327429
France57,13:00-19:30,11:00-19:30,11:00-19:30,11:00-19:30,11:00-19:30,11:00-19:30,11:00-19:30,01 42 71 81 12,22 rue du Bourg Tibourg,,Paris,48.857526/2.3564728
Allemagne1,,,,,,,,030 20625037,Franz�sische Strasse 23,,Berlin,52.514702/13.3902259
France46,10:00-19:00,,10:00-19:00,10:00-19:00,10:00-19:00,10:00-19:00,10:00-19:00,03 26 02 23 45,33 Rue Vesle,,Reims,49.25345429999999/4.0296617
Japon2,,,,,,,,093-551-4533,3-1-1 Kyomachi,,Kokurakita-ku,33.8851036/130.8825295
Espagne6,,,,,,,,944 24 76 27,46 Gran Via,,Bilbao,43.2636438/-2.9371625
Etats-Unis5,,,,,,,,(212) 705-3172,1000 3rd Ave,,NY,40.7617753/-73.96666669999999
France55,10:00-19:00,,10:00-19:00,10:00-19:00,10:00-19:00,10:00-19:00,10:00-19:00,04 99 61 15 85,23 Rue Foch,,Montpellier,43.6109142/3.8756663
Espagne3,,,,,,,,917 02 10 56,27 Calle Almirante,,Madrid,40.4226204/-3.6925351
France39,,09:30-20:00,09:30-20:00,09:30-20:00,09:30-20:00,09:30-20:00,09:30-20:00,03 20 86 00 53,39-45 Rue Nationale,,Lille,50.63576699999999/3.0611
France75,10:00-19:00,,10:00-19:00,10:00-19:00,10:00-19:00,10:00-19:00,10:00-19:00,01 42 78 69 92,118 rue Vieille du Temple,,Paris,48.861259/2.3635702
Royaume-Uni1,,,,,,,,020 7730 1880,140 Sloane Street,,London,51.4931502/-0.1581904
Royaume-Uni4,,,,,,,,020 7493 3553,400 Oxford Street,,London,51.5146301/-0.1528271
Belgique1,,,,,,,,03 232 42 51,9 Schuttershofstraat,,Anvers,51.2165141/4.4062047
France43,10:00-19:00,,10:00-19:00,10:00-19:00,10:00-19:00,10:00-19:00,10:00-19:00,03 88 24 38 01,34 Rue du 22 Novembre,,Strasbourg,48.5823346/7.745378199999998
France32,10:00-19:00,,10:00-19:00,10:00-19:00,10:00-19:00,10:00-19:00,10:00-19:00,02 35 70 45 01,4 rue du Gros Horloge,,Rouen,49.4412327/1.0934465
France89,10:00-19:00,,10:00-19:00,10:00-19:00,10:00-19:00,10:00-19:00,10:00-19:00,01 49 09 10 41,96 bld Jean Jaurès,,Boulogne Billancourt,48.8384238/2.2406538
France70,,10:30-19:00,10:00-19:00,10:00-19:00,10:00-19:00,10:00-19:00,10:00-19:00,04 78 60 55 39,14 Rue Emile Zola,,Lyon,45.759044/4.8326436
France49,10:00-19:00,,10:00-19:00,10:00-19:00,10:00-19:00,10:00-19:00,10:00-19:00,01 60 42 66 75,3 cours de la Garonne,,Serris,48.8523055/2.785399
France64,10:00-19:00,,10:00-19:00,10:00-19:00,10:00-19:00,10:00-19:00,10:00-19:00,05 34 25 12 34,2 rue Cantegril,,Toulouse,43.6012011/1.447371
France29,10:00-19:00,,10:00-19:00,10:00-19:00,10:00-19:00,10:00-19:00,10:00-19:00,04 78 84 88 53,42 rue de la République,,Lyon,45.7608989/4.8351653
Italie7,,,,,,,,055 238 2301,1 Piazza Repubblica,,Firenze,43.7714011/11.2546557
Espagne5,,,,,,,,934 67 63 29,73 Paseo de Gracia,,Barcelona,41.3935497/2.1627098
France14,09:30-20:00,,09:30-19:30,09:30-19:30,09:30-19:30,09:30-19:30,09:30-19:30,02 47 66 21 18,77 Rue Nationale,,Tours,47.3908332/0.688169
Royaume-Uni8,11:30-18:00,10:00-20:00,10:00-20:00,10:00-20:00,10:00-20:00,10:00-20:00,10:00-20:00,020 7201 8684,109-125 Knightsbridge,,London,51.5016405/-0.1596344
France37,,10:30-19:00,10:30-19:00,10:30-19:00,10:30-19:00,10:30-19:00,10:30-19:00,04 93 81 78 50,4 avenue de Suède,,Nice,43.69660760000001/7.2670013
Etats-Unis 14,12:00-17:00,10:00-18:00,10:00-18:00,10:00-18:00,10:00-18:00,10:00-18:00,10:00-18:00,(310) 456-7105,3866 Cross Creek Rd,,Malibu,34.034998/-118.6852587
France17,,10:30-19:00,10:00-19:00,10:00-19:00,10:00-19:00,10:00-19:00,10:00-19:00,04 78 42 52 88,7 rue du Plat,,Lyon,45.7582586/4.8296246
France68,,,10:30-18:30,10:30-18:30,10:30-18:30,10:30-18:30,10:30-18:30,03 20 55 19 26,17 rue de la Monnaie,,Lille,50.6406696/3.063637
Japon11,,,,,,,,047-411-4431,7-7-1 Honcho,,Funabashi,35.7032075/139.9843732
France117,10:00-20:00,10:00-20:00,10:00-20:00,10:00-20:00,10:00-20:00,10:00-20:00,10:00-20:00,09 64 10 17 94,Les Terrasses du Port,Quai du Lazaret,Marseille,43.307409/5.366258699999999
Allemagne6,,,,,,,,0711 51886971,Marktstra�e 1,,Stuttgart,48.7750767/9.1797417
Japon4,,,,,,,,03-3341-3251,3-14-1 Shinjuku,,Shinjuku-ku,35.6916376/139.704616
France62,10:00-19:00,,10:00-19:00,10:00-19:00,10:00-19:00,10:00-19:00,10:00-19:00,02 28 08 91 72,20 Rue de la Marne,,Nantes,47.2161789/-1.5537571
France110,10:00-19:00,,10:00-19:00,10:00-19:00,10:00-19:00,10:00-19:00,10:00-19:00,03 20 55 64 29,13 Rue des Chats Bossus,,Lille,50.6396562/3.0640113
France122,,10:30-19:00,10:30-19:00,10:30-19:00,10:30-19:00,10:30-19:00,10:30-19:00,01 42 60 66 28,57 Rue Saint Roch,,Paris,48.8671313/2.3332244
France103,10:00-19:00,,10:00-19:00,10:00-19:00,10:00-19:00,10:00-19:00,10:00-19:00,01 42 60 87 13,Carrousel du Louvre,Rue de Rivoli,Paris,48.860395/2.337599
Allemagne3,,,,,,,,030 21018084,Wilmersdorfer stra�e 118,,Berlin,52.5081824/13.3071951
France98,,10:00-19:00,10:00-19:00,10:00-19:00,10:00-19:00,10:00-19:00,10:00-19:00,05 59 54 93 60,1 Avenue Reine Victoria,,Biarritz,43.485313/-1.5556788
Turquie2,,,,,,,,(0216) 410 2215,"Bagdat Cad, NO 447/B",,,40.92305410000001/29.1345546
Italie5,,,,,,,,055 295625,17/19 Via della Vigna Nuova,,Firenze,43.7713402/11.2507372
France35,,10:00-19:00,10:00-19:00,10:00-19:00,10:00-19:00,10:00-19:00,10:00-19:00,04 91 33 64 88,4 Rue Sainte,,Marseille,43.2929096/5.3766131
Royaume-Uni11,12:00-18:00,10:00-19:00,10:00-19:00,10:00-19:00,10:00-19:00,10:00-19:00,10:00-19:00,020 7591 3810,297-299 Brompton Road,,London,51.4941312/-0.168616
Gr�ce1,,,,,,,,21 0364 0222,Voukourestiou no 13,,Athènes,37.977516/23.7360647
Portugal1,,,,,,,,21 342 6316,84-88 Avenida da Liberdade,,Lisboa,38.7191557/-9.144136399999999
Italie4,,,,,,,,06 8535 0130,Piazza Colonna,,Roma,41.9011366/12.4799073
France71,,10:00-19:00,10:00-19:00,10:00-19:00,10:00-19:00,10:00-19:00,10:00-19:00,04 93 99 38 37,131 rue Antibes,,Cannes,43.551807/7.028044299999999
Japon12,,,,,,,,03-3352-1111,3-14-1 Shinjuku,,Shinjuku-ku,35.6916376/139.704616
France53,10:00-19:00,,10:00-19:00,10:00-19:00,10:00-19:00,10:00-19:00,10:00-19:00,05 56 44 63 30,25 rue Mably,,Bordeaux,44.8438408/-0.577386
Suisse1,,,,,,,,022 310 81 71,10 Grand Rue,,Genève,46.2019112/6.1455363
Italie8,,,,,,,,0421 65106,Via Marco Polo 1,,Noventa di Piave Venezia,45.6717237/12.5354538
France24,,,10:00-19:00,10:00-19:00,10:00-19:00,10:00-19:00,10:00-19:00,05 62 27 04 15,50 rue Boulbonne,,Toulouse,43.6016324/1.4484337
France107,10:00-19:00,,10:00-19:00,10:00-19:00,10:00-19:00,10:00-19:00,10:00-19:00,04 79 62 71 82,19 Boulevard de la colonne,,Chambéry,45.5676996/5.921085300000001
Japon15,,,,,,,,03-6431-0806,3-17-1 Tamagawa,,Setagaya-ku,35.6147765/139.6268262
France67,10:00-19:00,,10:00-19:00,10:00-19:00,10:00-19:00,10:00-19:00,10:00-19:00,01 40 70 97 89,18 rue François,,Paris,48.8488867/2.2710289
France106,,09:30-19:30,09:30-19:30,09:30-19:30,09:30-19:30,09:30-19:30,09:30-20:00,02 31 91 73 92,108 Bd Maréchal Leclerc,,Caen,49.1823169/-0.361903
Allemagne7,,,,,,,,0211 86939436,K�nigsallee 2,,Dusseldorf,51.2270704/6.7810988
Allemagne2,,,,,,,,030 21018549,Tauentzienstrasse 21/24,,Berlin,52.5021588/13.3413228
Royaume-Uni14,11:30-17:30,10:00-19:00,10:00-19:00,10:00-19:00,10:00-19:00,10:00-19:00,,020 7486 3004,"111, Marylebone",,London,51.5231673/-0.1336888
Italie9,,,,,,,,051 234694,"Via Farini, 14",,Bologna,44.4915287/11.3444668
Japon14,,,,,,,,022-302-7566,????19-24,,??????,43.1253841/-76.1114257
Royaume-Uni16,11:00-18:00,10:00-18:00,10:00-18:00,10:00-18:00,10:00-20:00,10:00-19:00,,0131 557 6446,30-34 St Andrew Square,,Edinburgh,55.95489269999999/-3.1917851
Canada1,,,,,,,,(403) 269-7341,510 8th Ave SW,,Calgary,51.0460565/-114.0719141
Canada4,,,,,,,,(604) 681-3121,737 Dunsmuir St,,Vancouver,49.2839646/-123.1165641
France102,,10:00-21:00,10:00-21:00,10:00-21:00,10:00-22:00,10:00-21:00,10:00-21:00,01 45 75 14 17,12 rue Linois,,Paris,48.8485543/2.2822428
Royaume-Uni15,10:30-17:00,10:00-18:00,10:00-18:00,10:00-18:00,10:00-20:00,10:00-19:00,,020 7935 5998,Victoria Quater,107-111 Briggate,Leeds,53.8007554/-1.5490774
France100,,09:30-20:00,09:30-20:00,09:30-20:00,09:30-20:00,09:30-20:00,09:30-20:00,02 28 08 93 40,20 Rue de la Marne,,Nantes,47.2161789/-1.5537571
Royaume-Uni13,12:00-18:00,10:00-19:00,10:00-19:00,10:00-19:00,10:00-19:00,10:00-19:00,10:00-19:00,020 7259 0049,Harrods Department Store,87-135 Brompton Road,London,51.5073509/-0.1277583
0028 - Galeries Lafayette Femme Bordeaux,09:30-20:00,,09:30-20:00,09:30-20:00,09:30-20:00,09:30-20:00,09:30-20:00,05 56 48 58 66,11 rue Sainte Catherine,Galeries Lafayette Bordeaux,Bordeaux,44.8413103/-0.5748825
France112,14:00-19:00,10:30-19:30,10:30-19:30,10:30-19:30,10:30-19:30,10:30-19:30,10:30-19:30,09 64 15 09 80,2 Place de la Porte Maillot,C.Cial Palais des Congrès,Paris,48.8794852/2.2834582
Singapour1,,,,,,,,6735 8838,260 Orchard Road,,Singapour,1.3029619/103.8371889
France121,12:00-19:30,10:30-20:00,10:30-20:00,10:30-20:00,10:30-20:00,10:30-20:00,10:30-20:00,01 53 76 39 33,12 Rond point des Champs Elysées,,Paris,48.8692834/2.3090309
0103 - GL Femme Lille,,10:00-20:00,10:00-20:00,10:00-20:00,10:00-20:00,10:00-21:00,10:00-21:00,03 20 86 75 20,6 rue de la Rivierette,,Lille,50.6343127/3.0651284
Canada2,,,,,,,,(403) 269-7341,510 8th Ave SW,,Calgary,51.0460565/-114.0719141
Turquie1,,,,,,,,(0212) 232 5766,Vali Kona?? Caddesi No:69,,,
Suisse6,,,,,,,,021 312 39 10,4 rue de la Paix,,Lausanne,46.51955599999999/6.6361379
Ukraine1,,,,,,,,044 364 3525,"?????????? ???????, 1?",,????,37.675545/-122.0877707
France23,,10:00-19:00,10:00-19:00,10:00-19:00,10:00-19:00,10:00-19:00,10:00-19:30,03 20 20 08 18,44 Rue Mail De Lannoy,McArthurGlen Roubaix,Roubaix,50.6903219/3.1804687
France52,,09:30-19:30,09:30-19:30,09:30-19:30,09:30-19:30,09:30-19:30,09:30-19:30,04 78 38 06 45,26 rue Thomassin,,Lyon,45.7615977/4.8352216
Espagne10,,,,,,,,951 27 91 40,"Calle de Ramon Areces, S/N",,Marbella,36.490725/-4.9516202
Luxembourg1,,,,,,,,27 99 65 91,"31, rue Philippe II",,Luxembourg,49.6101397/6.1281677
France76,,,10:00-20:00,10:00-20:00,,10:00-21:00,10:00-20:00,01 45 44 22 30,24 rue de Sèvres,Bon Marché,Paris,48.8510122/2.3244161
France120,10:00-20:00,,10:00-20:00,10:00-20:00,10:00-20:00,10:00-20:00,10:00-20:00,04 94 42 10 88,RN 98,,La Valette du Var,43.14077830000001/6.0186417
Italie3,,10:00-19:00,10:00-19:00,10:00-19:00,10:00-19:00,10:00-19:00,10:00-19:00,02 7639 0404,"18,Via santo spirito",,Milano,45.4701569/9.1953415
France115,10:00-19:00,,10:00-19:00,10:00-19:00,10:00-19:00,10:00-19:00,10:00-19:00,02 99 92 30 77,5 Rue du Bosphore,,Rennes,48.08242/-1.6790023
France104,12:00-20:00,10:30-20:00,10:30-20:00,10:30-20:00,10:30-20:00,10:30-20:00,10:30-20:00,01 53 76 39 82,35 avenue des champs elysées,,Paris,48.8696912/2.3063133
Japon17,,,,,,,,045-321-8707,1-6-31 Minamisaiwai,Nishi-ku,Yokohama-shi,35.4657774/139.6205984
Etats-Unis15,12:00-17:00,,10:00-18:00,10:00-18:00,10:00-18:00,10:00-18:00,10:00-18:00,(970) 544-1961,218 S Mill St,,Aspen,39.1895967/-106.819411
France9,10:00-20:00,,10:00-19:00,10:00-19:00,10:00-19:00,10:00-19:00,10:00-19:00,01 45 24 36 72,91 Avenue Paul Doumer,,Paris,48.8583811/2.275853
0102 - Galeries Lafayettes Homme Bordeaux,09:30-20:00,,09:30-20:00,09:30-20:00,09:30-20:00,09:30-20:00,09:30-20:00,05 57 78 14 25,11 rue Sainte Catherine,Galeries Lafayette Bordeaux,Bordeaux,44.8413103/-0.5748825
Canada3,10:00-19:00,10:00-19:00,10:00-19:00,10:00-21:00,10:00-21:00,10:00-21:00,10:00-19:00,(604) 681-3121,737 Dunsmuir St,,Vancouver,49.2839646/-123.1165641
